NORAD_CAT_ID,OBJECT_NAME,OBJECT_TYPE,EPOCH,MEAN_MOTION,ECCENTRICITY,INCLINATION,RA_OF_ASC_NODE,ARG_OF_PERICENTER,MEAN_ANOMALY,BSTAR,MEAN_MOTION_DOT,MEAN_MOTION_DDOT,TLE_LINE0,TLE_LINE1,TLE_LINE2,SEMIMAJOR_AXIS,PERIOD,APOGEE,PERIGEE,DECAYED
53268.0,STARLINK-4109,PAYLOAD,2023-11-06 14:54:29,15.08804495,0.0001406,53.2176,68.182,82.8741,277.2411,-0.0012607,-0.00020276,0.0,0 STARLINK-4109,1 53268U 22086AC  23310.62116999 -.00020276  00000-0 -12607-2 0  9991,2 53268  53.2176  68.1820 0001406  82.8741 277.2411 15.08804495 72137,6917.989,95.44,540.827,538.881,0.0
53268.0,STARLINK-4109,PAYLOAD,2023-11-07 11:34:32,15.08815175,0.0001311,53.2173,64.3192,76.0277,284.086,0.0011296,0.00017723,0.0,0 STARLINK-4109,1 53268U 22086AC  23311.48232408  .00017723  00000-0  11296-2 0  9994,2 53268  53.2173  64.3192 0001311  76.0277 284.0860 15.08815175 72083,6917.956,95.439,540.728,538.914,0.0
53268.0,STARLINK-4109,PAYLOAD,2023-11-07 14:45:19,15.088191,0.000128,53.217,63.7257,77.6358,282.4778,0.001715,0.00027096,0.0,0 STARLINK-4109,1 53268U 22086AC  23311.61480754  .00027096  00000-0  17150-2 0  9997,2 53268  53.2170  63.7257 0001280  77.6358 282.4778 15.08819100 72281,6917.944,95.439,540.695,538.924,0.0
53268.0,STARLINK-4109,PAYLOAD,2023-11-08 00:17:38,15.08847482,0.0001256,53.2177,61.9404,70.2459,289.8669,0.0017172,0.00027152,0.0,0 STARLINK-4109,1 53268U 22086AC  23312.01224783  .00027152  00000-0  17172-2 0  9997,2 53268  53.2177  61.9404 0001256  70.2459 289.8669 15.08847482 72167,6917.858,95.437,540.591,538.854,0.0
53268.0,STARLINK-4109,PAYLOAD,2023-11-08 13:00:42,15.08882835,0.0001294,53.2172,59.5627,77.094,283.0196,0.001924,0.00030501,0.0,0 STARLINK-4109,1 53268U 22086AC  23312.54215780  .00030501  00000-0  19240-2 0  9992,2 53268  53.2172  59.5627 0001294  77.0940 283.0196 15.08882835 72425,6917.749,95.435,540.51,538.719,0.0
53268.0,STARLINK-4109,PAYLOAD,2023-11-09 00:08:23,15.08877562,0.0001362,53.218,57.4817,83.9429,276.1718,0.00093881,0.000147,0.0,0 STARLINK-4109,1 53268U 22086AC  23313.00583051  .00014700  00000-0  93881-3 0  9990,2 53268  53.2180  57.4817 0001362  83.9429 276.1718 15.08877562 72318,6917.766,95.435,540.573,538.688,0.0
53268.0,STARLINK-4109,PAYLOAD,2023-11-09 11:16:05,15.08856139,0.000137,53.2182,55.4006,89.9274,270.1876,0.0011198,0.00017586,0.0,0 STARLINK-4109,1 53268U 22086AC  23313.46951116  .00017586  00000-0  11198-2 0  9996,2 53268  53.2182  55.4006 0001370  89.9274 270.1876 15.08856139 72384,6917.831,95.437,540.644,538.748,0.0
53268.0,STARLINK-4109,PAYLOAD,2023-11-09 14:26:51,15.08853875,0.0001354,53.2174,54.8056,89.1905,270.9242,0.0017398,0.0002752,0.0,0 STARLINK-4109,1 53268U 22086AC  23313.60199006  .00027520  00000-0  17398-2 0  9991,2 53268  53.2174  54.8056 0001354  89.1905 270.9242 15.08853875 72589,6917.838,95.437,540.64,538.766,0.0
53268.0,STARLINK-4109,PAYLOAD,2023-11-09 23:59:10,15.08853605,0.00015,53.2179,53.0214,87.4273,272.6891,0.0010655,0.00016716,0.0,0 STARLINK-4109,1 53268U 22086AC  23313.99943018  .00016716  00000-0  10655-2 0  9997,2 53268  53.2179  53.0214 0001500  87.4273 272.6891 15.08853605 72460,6917.839,95.437,540.741,538.666,0.0
53268.0,STARLINK-4109,PAYLOAD,2023-11-10 12:42:15,15.08852114,0.0001482,53.2172,50.6426,87.3724,272.7438,0.0016217,0.00025624,0.0,0 STARLINK-4109,1 53268U 22086AC  23314.52935090  .00025624  00000-0  16217-2 0  9996,2 53268  53.2172  50.6426 0001482  87.3724 272.7438 15.08852114 72541,6917.843,95.437,540.734,538.683,0.0
53268.0,STARLINK-4109,PAYLOAD,2023-11-10 23:49:57,15.08851209,0.0001435,53.217,48.562,85.3408,274.7748,0.00080875,0.00012611,0.0,0 STARLINK-4109,1 53268U 22086AC  23314.99302949  .00012611  00000-0  80875-3 0  9992,2 53268  53.2170  48.5620 0001435  85.3408 274.7748 15.08851209 72614,6917.846,95.437,540.704,538.718,0.0
53268.0,STARLINK-4109,PAYLOAD,2023-11-11 12:33:02,15.08847499,0.0001788,53.2175,46.1808,99.9218,260.1976,0.00031233,4.687e-05,0.0,0 STARLINK-4109,1 53268U 22086AC  23315.52294971  .00004687  00000-0  31233-3 0  9995,2 53268  53.2175  46.1808 0001788  99.9218 260.1976 15.08847499 72698,6917.857,95.437,540.959,538.486,0.0
53268.0,STARLINK-4109,PAYLOAD,2023-11-11 23:40:44,15.08842093,0.0001379,53.2179,44.1011,91.062,269.053,0.00015676,2.208e-05,0.0,0 STARLINK-4109,1 53268U 22086AC  23315.98663069  .00002208  00000-0  15676-3 0  9993,2 53268  53.2179  44.1011 0001379  91.0620 269.0530 15.08842093 72769,6917.874,95.437,540.693,538.785,0.0
53268.0,STARLINK-4109,PAYLOAD,2023-11-12 12:23:50,15.08843685,0.0001733,53.2175,41.7183,106.4592,253.6591,0.00013956,1.934e-05,0.0,0 STARLINK-4109,1 53268U 22086AC  23316.51655152  .00001934  00000-0  13956-3 0  9991,2 53268  53.2175  41.7183 0001733 106.4592 253.6591 15.08843685 73025,6917.869,95.437,540.933,538.535,0.0
53268.0,STARLINK-4109,PAYLOAD,2023-11-13 10:39:13,15.08855686,0.0001606,53.2177,37.5567,103.7487,256.3684,0.0003833,5.82e-05,0.0,0 STARLINK-4109,1 53268U 22086AC  23317.44390485  .00005820  00000-0  38330-3 0  9990,2 53268  53.2177  37.5567 0001606 103.7487 256.3684 15.08855686 72989,6917.832,95.437,540.808,538.586,0.0
53268.0,STARLINK-4109,PAYLOAD,2023-11-13 12:14:36,15.08857227,0.0001727,53.2181,37.258,105.6234,254.4948,0.00035892,5.431e-05,0.0,0 STARLINK-4109,1 53268U 22086AC  23317.51014351  .00005431  00000-0  35892-3 0  9991,2 53268  53.2181  37.2580 0001727 105.6234 254.4948 15.08857227 73178,6917.828,95.436,540.887,538.498,0.0
53268.0,STARLINK-4109,PAYLOAD,2023-11-14 12:05:23,15.0884661,0.0001584,53.2174,32.8002,89.0412,271.0762,0.00016531,2.344e-05,0.0,0 STARLINK-4109,1 53268U 22086AC  23318.50374770  .00002344  00000-0  16531-3 0  9994,2 53268  53.2174  32.8002 0001584  89.0412 271.0762 15.08846610 73144,6917.86,95.437,540.821,538.629,0.0
53268.0,STARLINK-4109,PAYLOAD,2023-11-14 21:37:42,15.08840949,0.0001572,53.2173,31.0169,87.1646,272.9526,0.00012582,1.715e-05,0.0,0 STARLINK-4109,1 53268U 22086AC  23318.90118919  .00001715  00000-0  12582-3 0  9992,2 53268  53.2173  31.0169 0001572  87.1646 272.9526 15.08840949 73386,6917.877,95.437,540.83,538.655,0.0
53268.0,STARLINK-4109,PAYLOAD,2023-11-15 03:59:15,15.08836036,0.0001588,53.2165,29.8295,99.8553,260.2618,5.3361e-05,5.61e-06,0.0,0 STARLINK-4109,1 53268U 22086AC  23319.16615079  .00000561  00000-0  53361-4 0  9999,2 53268  53.2165  29.8295 0001588  99.8553 260.2618 15.08836036 73245,6917.893,95.438,540.856,538.659,0.0
53268.0,STARLINK-4109,PAYLOAD,2023-11-15 10:20:47,15.08836513,0.0001661,53.2176,28.6395,90.676,269.4423,-7.1724e-05,-1.429e-05,0.0,0 STARLINK-4109,1 53268U 22086AC  23319.43110978 -.00001429  00000-0 -71724-4 0  9996,2 53268  53.2176  28.6395 0001661  90.6760 269.4423 15.08836513 73465,6917.891,95.438,540.905,538.607,0.0
53268.0,STARLINK-4109,PAYLOAD,2023-11-15 21:28:29,15.08839147,0.0001739,53.2183,26.5581,85.5977,274.5214,-3.7389e-05,-8.83e-06,0.0,0 STARLINK-4109,1 53268U 22086AC  23319.89479159 -.00000883  00000-0 -37389-4 0  9997,2 53268  53.2183  26.5581 0001739  85.5977 274.5214 15.08839147 73535,6917.883,95.438,540.951,538.545,0.0
53268.0,STARLINK-4109,PAYLOAD,2023-11-16 03:50:04,15.08799007,0.0001916,53.2181,25.3686,87.7516,272.3696,0.0011887,0.0001866,0.0,0 STARLINK-4109,1 53268U 22086AC  23320.15977118  .00018660  00000-0  11887-2 0  9999,2 53268  53.2181  25.3686 0001916  87.7516 272.3696 15.08799007 73390,6918.006,95.44,541.196,538.545,0.0
53268.0,STARLINK-4109,PAYLOAD,2023-11-16 13:22:21,15.08839174,0.0001745,53.217,23.5833,85.4088,274.7103,0.00010913,1.449e-05,0.0,0 STARLINK-4109,1 53268U 22086AC  23320.55719566  .00001449  00000-0  10913-3 0  9991,2 53268  53.2170  23.5833 0001745  85.4088 274.7103 15.08839174 73637,6917.883,95.438,540.955,538.541,0.0
53268.0,STARLINK-4109,PAYLOAD,2023-11-16 21:19:17,15.08837987,0.0001797,53.2179,22.097,89.6367,270.4832,5.6989e-05,6.19e-06,0.0,0 STARLINK-4109,1 53268U 22086AC  23320.88839718  .00000619  00000-0  56989-4 0  9991,2 53268  53.2179  22.0970 0001797  89.6367 270.4832 15.08837987 73682,6917.887,95.438,540.995,538.508,0.0
53268.0,STARLINK-4109,PAYLOAD,2023-11-17 11:37:45,15.08840857,0.000166,53.2173,19.4209,90.5289,269.5894,0.00016324,2.311e-05,0.0,0 STARLINK-4109,1 53268U 22086AC  23321.48455681  .00002311  00000-0  16324-3 0  9990,2 53268  53.2173  19.4209 0001660  90.5289 269.5894 15.08840857 73771,6917.878,95.438,540.891,538.594,0.0
53268.0,STARLINK-4109,PAYLOAD,2023-11-17 21:10:04,15.08838611,0.0001705,53.2168,17.6366,81.8297,278.2889,9.4559e-05,1.217e-05,0.0,0 STARLINK-4109,1 53268U 22086AC  23321.88199897  .00001217  00000-0  94559-4 0  9999,2 53268  53.2168  17.6366 0001705  81.8297 278.2889 15.08838611 73834,6917.885,95.438,540.929,538.57,0.0
53268.0,STARLINK-4109,PAYLOAD,2023-11-18 03:31:37,15.08837686,0.0001742,53.2162,16.4467,82.3347,277.7843,6.0314e-05,6.72e-06,0.0,0 STARLINK-4109,1 53268U 22086AC  23322.14696007  .00000672  00000-0  60314-4 0  9990,2 53268  53.2162  16.4467 0001742  82.3347 277.7843 15.08837686 73699,6917.887,95.438,540.958,538.547,0.0
53268.0,STARLINK-4109,PAYLOAD,2023-11-18 11:28:33,15.08839246,0.0001803,53.217,14.96,81.8541,278.2656,0.00011757,1.583e-05,0.0,0 STARLINK-4109,1 53268U 22086AC  23322.47816214  .00001583  00000-0  11757-3 0  9998,2 53268  53.2170  14.9600 0001803  81.8541 278.2656 15.08839246 73926,6917.883,95.438,540.995,538.5,0.0
53268.0,STARLINK-4109,PAYLOAD,2023-11-18 21:00:51,15.0884111,0.0001372,53.2171,13.1763,87.1692,272.9458,0.00010433,1.373e-05,0.0,0 STARLINK-4109,1 53268U 22086AC  23322.87559854  .00001373  00000-0  10433-3 0  9993,2 53268  53.2171  13.1763 0001372  87.1692 272.9458 15.08841110 73985,6917.877,95.437,540.691,538.793,0.0
53268.0,STARLINK-4109,PAYLOAD,2023-11-19 03:22:23,15.08851651,0.000162,53.217,11.9865,84.6829,275.4348,-2.4779e-05,-6.83e-06,0.0,0 STARLINK-4109,1 53268U 22086AC  23323.14055482 -.00000683  00000-0 -24779-4 0  9996,2 53268  53.2170  11.9865 0001620  84.6829 275.4348 15.08851651 73845,6917.845,95.437,540.83,538.589,0.0
